{
  "type": "FeatureCollection",
  "features": [
    {
      "type": "Feature",
      "properties": {
        "norad_id": 60182,
        "name": "ALOS-4 (DAICHI-4)",
        "group": "resource",
        "lat": 46.51058652635907,
        "lon": 78.77629939108559,
        "alt_km": 626.3542998293924,
        "timestamp": "2025-12-18T10:51:25.447137+00:00",
        "meta_object_name": "ALOS-4 (DAICHI-4)",
        "meta_object_id": "2024-123A",
        "meta_epoch": "2025-12-17T21:39:33.866784",
        "meta_mean_motion": 14.794683,
        "meta_eccentricity": 0.00013744,
        "meta_inclination": 97.9228,
        "meta_ra_of_asc_node": 86.6761,
        "meta_arg_of_pericenter": 101.7096,
        "meta_mean_anomaly": 258.4269,
        "meta_ephemeris_type": 0,
        "meta_classification_type": "U",
        "meta_norad_cat_id": 60182,
        "meta_element_set_no": 999,
        "meta_rev_at_epoch": 7907,
        "meta_bstar": 0.00027600201,
        "meta_mean_motion_dot": 2.01e-05,
        "meta_mean_motion_ddot": 0,
        "tle_line1": "1 60182U 24123A   25351.90247531  .00002010  00000+0  27600-3 0  9996",
        "tle_line2": "2 60182  97.9228  86.6761 0001374 101.7096 258.4269 14.79468300 79070"
      },
      "geometry": {
        "type": "Point",
        "coordinates": [
          78.77629939108559,
          46.51058652635907
        ]
      }
    },
    {
      "type": "Feature",
      "properties": {
        "norad_id": 60452,
        "name": "LEGION 3",
        "group": "resource",
        "lat": 16.524397243546613,
        "lon": 82.23594331426538,
        "alt_km": 513.0682747247629,
        "timestamp": "2025-12-18T10:51:25.447155+00:00",
        "meta_object_name": "LEGION 3",
        "meta_object_id": "2024-146A",
        "meta_epoch": "2025-12-17T19:56:05.965440",
        "meta_mean_motion": 15.15815503,
        "meta_eccentricity": 0.00154678,
        "meta_inclination": 45.0024,
        "meta_ra_of_asc_node": 282.8399,
        "meta_arg_of_pericenter": 226.2204,
        "meta_mean_anomaly": 133.7396,
        "meta_ephemeris_type": 0,
        "meta_classification_type": "U",
        "meta_norad_cat_id": 60452,
        "meta_element_set_no": 999,
        "meta_rev_at_epoch": 7450,
        "meta_bstar": 0.00022026405,
        "meta_mean_motion_dot": 4.027e-05,
        "meta_mean_motion_ddot": 0,
        "tle_line1": "1 60452U 24146A   25351.83062460  .00004027  00000+0  22026-3 0  9996",
        "tle_line2": "2 60452  45.0024 282.8399 0015467 226.2204 133.7396 15.15815503 74508"
      },
      "geometry": {
        "type": "Point",
        "coordinates": [
          82.23594331426538,
          16.524397243546613
        ]
      }
    },
    {
      "type": "Feature",
      "properties": {
        "norad_id": 60453,
        "name": "LEGION 4",
        "group": "resource",
        "lat": 17.74201508474656,
        "lon": 172.62728913092883,
        "alt_km": 521.9061509186822,
        "timestamp": "2025-12-18T10:51:25.447166+00:00",
        "meta_object_name": "LEGION 4",
        "meta_object_id": "2024-146B",
        "meta_epoch": "2025-12-17T18:21:46.902816",
        "meta_mean_motion": 15.15877144,
        "meta_eccentricity": 0.00090244,
        "meta_inclination": 45.0398,
        "meta_ra_of_asc_node": 14.9579,
        "meta_arg_of_pericenter": 337.3399,
        "meta_mean_anomaly": 22.7081,
        "meta_ephemeris_type": 0,
        "meta_classification_type": "U",
        "meta_norad_cat_id": 60453,
        "meta_element_set_no": 999,
        "meta_rev_at_epoch": 7334,
        "meta_bstar": 0.00020813471,
        "meta_mean_motion_dot": 3.791e-05,
        "meta_mean_motion_ddot": 0,
        "tle_line1": "1 60453U 24146B   25351.76512619  .00003791  00000+0  20813-3 0  9994",
        "tle_line2": "2 60453  45.0398  14.9579 0009024 337.3399  22.7081 15.15877144 73346"
      },
      "geometry": {
        "type": "Point",
        "coordinates": [
          172.62728913092883,
          17.74201508474656
        ]
      }
    },
    {
      "type": "Feature",
      "properties": {
        "norad_id": 60989,
        "name": "SENTINEL-2C",
        "group": "resource",
        "lat": -70.36250244951636,
        "lon": -140.1405405146536,
        "alt_km": 797.0667142896937,
        "timestamp": "2025-12-18T10:51:25.447180+00:00",
        "meta_object_name": "SENTINEL-2C",
        "meta_object_id": "2024-157A",
        "meta_epoch": "2025-12-17T18:34:37.041312",
        "meta_mean_motion": 14.30819545,
        "meta_eccentricity": 0.00012286,
        "meta_inclination": 98.5679,
        "meta_ra_of_asc_node": 64.184,
        "meta_arg_of_pericenter": 96.8159,
        "meta_mean_anomaly": 263.3164,
        "meta_ephemeris_type": 0,
        "meta_classification_type": "U",
        "meta_norad_cat_id": 60989,
        "meta_element_set_no": 999,
        "meta_rev_at_epoch": 6704,
        "meta_bstar": 6.1542021e-05,
        "meta_mean_motion_dot": 1.18e-06,
        "meta_mean_motion_ddot": 0,
        "tle_line1": "1 60989U 24157A   25351.77403983  .00000118  00000+0  61542-4 0  9999",
        "tle_line2": "2 60989  98.5679  64.1840 0001228  96.8159 263.3164 14.30819545 67044"
      },
      "geometry": {
        "type": "Point",
        "coordinates": [
          -140.1405405146536,
          -70.36250244951636
        ]
      }
    },
    {
      "type": "Feature",
      "properties": {
        "norad_id": 61735,
        "name": "IONOSFERA-M 1",
        "group": "resource",
        "lat": -7.794948219674436,
        "lon": -136.53685954044346,
        "alt_km": 819.5835118066689,
        "timestamp": "2025-12-18T10:51:25.447191+00:00",
        "meta_object_name": "IONOSFERA-M 1",
        "meta_object_id": "2024-199A",
        "meta_epoch": "2025-12-17T23:04:44.279040",
        "meta_mean_motion": 14.22715174,
        "meta_eccentricity": 7.064e-05,
        "meta_inclination": 98.7401,
        "meta_ra_of_asc_node": 221.7697,
        "meta_arg_of_pericenter": 13.84,
        "meta_mean_anomaly": 346.2797,
        "meta_ephemeris_type": 0,
        "meta_classification_type": "U",
        "meta_norad_cat_id": 61735,
        "meta_element_set_no": 999,
        "meta_rev_at_epoch": 10193,
        "meta_bstar": 4.3052235e-05,
        "meta_mean_motion_dot": 5.2e-07,
        "meta_mean_motion_ddot": 0,
        "tle_line1": "1 61735U 24199A   25351.96162360  .00000052  00000+0  43052-4 0  9990",
        "tle_line2": "2 61735  98.7401 221.7697 0000706  13.8400 346.2797 14.22715174101932"
      },
      "geometry": {
        "type": "Point",
        "coordinates": [
          -136.53685954044346,
          -7.794948219674436
        ]
      }
    },
    {
      "type": "Feature",
      "properties": {
        "norad_id": 61736,
        "name": "IONOSFERA-M 2",
        "group": "resource",
        "lat": 4.865084761912538,
        "lon": 42.91919223987716,
        "alt_km": 818.0558194439955,
        "timestamp": "2025-12-18T10:51:25.447201+00:00",
        "meta_object_name": "IONOSFERA-M 2",
        "meta_object_id": "2024-199B",
        "meta_epoch": "2025-12-17T22:13:20.777088",
        "meta_mean_motion": 14.22717355,
        "meta_eccentricity": 0.00017629,
        "meta_inclination": 98.7407,
        "meta_ra_of_asc_node": 221.6467,
        "meta_arg_of_pericenter": 104.0103,
        "meta_mean_anomaly": 256.1271,
        "meta_ephemeris_type": 0,
        "meta_classification_type": "U",
        "meta_norad_cat_id": 61736,
        "meta_element_set_no": 999,
        "meta_rev_at_epoch": 10505,
        "meta_bstar": 4.6360569e-05,
        "meta_mean_motion_dot": 6e-07,
        "meta_mean_motion_ddot": 0,
        "tle_line1": "1 61736U 24199B   25351.92593492  .00000060  00000+0  46361-4 0  9996",
        "tle_line2": "2 61736  98.7407 221.6467 0001762 104.0103 256.1271 14.22717355105055"
      },
      "geometry": {
        "type": "Point",
        "coordinates": [
          42.91919223987716,
          4.865084761912538
        ]
      }
    },
    {
      "type": "Feature",
      "properties": {
        "norad_id": 63772,
        "name": "BIOMASS",
        "group": "resource",
        "lat": -27.223872390530286,
        "lon": -6.807355265355738,
        "alt_km": 675.1995113880639,
        "timestamp": "2025-12-18T10:51:25.447212+00:00",
        "meta_object_name": "BIOMASS",
        "meta_object_id": "2025-090A",
        "meta_epoch": "2025-12-17T14:16:42.550752",
        "meta_mean_motion": 14.67537674,
        "meta_eccentricity": 0.00011398,
        "meta_inclination": 98.0698,
        "meta_ra_of_asc_node": 176.5338,
        "meta_arg_of_pericenter": 82.0444,
        "meta_mean_anomaly": 278.089,
        "meta_ephemeris_type": 0,
        "meta_classification_type": "U",
        "meta_norad_cat_id": 63772,
        "meta_element_set_no": 999,
        "meta_rev_at_epoch": 3405,
        "meta_bstar": 0.0001678642,
        "meta_mean_motion_dot": 9.04e-06,
        "meta_mean_motion_ddot": 0,
        "tle_line1": "1 63772U 25090A   25351.59493693  .00000904  00000+0  16786-3 0  9998",
        "tle_line2": "2 63772  98.0698 176.5338 0001139  82.0444 278.0890 14.67537674 34052"
      },
      "geometry": {
        "type": "Point",
        "coordinates": [
          -6.807355265355738,
          -27.223872390530286
        ]
      }
    }
  ]
}